{
  "type": "FeatureCollection",
  "features": [
    {
      "type": "Feature",
      "properties": {
        "norad_id": 34492,
        "name": "IRIDIUM 33 DEB",
        "group": "iridium-33-debris",
        "lat": 65.92291218493548,
        "lon": -20.9340439883887,
        "alt_km": 907.7874818158007,
        "timestamp": "2025-12-21T09:37:23.039861+00:00",
        "meta_object_name": "IRIDIUM 33 DEB",
        "meta_object_id": "1997-051GH",
        "meta_epoch": "2025-12-19T10:45:18.347328",
        "meta_mean_motion": 14.25846982,
        "meta_eccentricity": 0.0188646,
        "meta_inclination": 86.4707,
        "meta_ra_of_asc_node": 331.9164,
        "meta_arg_of_pericenter": 216.3823,
        "meta_mean_anomaly": 273.3437,
        "meta_ephemeris_type": 0,
        "meta_classification_type": "U",
        "meta_norad_cat_id": 34492,
        "meta_element_set_no": 999,
        "meta_rev_at_epoch": 85154,
        "meta_bstar": 0.0022012,
        "meta_mean_motion_dot": 6.332e-05,
        "meta_mean_motion_ddot": 0,
        "tle_line1": "1 34492U 97051GH  25353.44812902  .00006332  00000+0  22012-2 0  9994",
        "tle_line2": "2 34492  86.4707 331.9164 0188646 216.3823 273.3437 14.25846982851542"
      },
      "geometry": {
        "type": "Point",
        "coordinates": [
          -20.9340439883887,
          65.92291218493548
        ]
      }
    },
    {
      "type": "Feature",
      "properties": {
        "norad_id": 34497,
        "name": "IRIDIUM 33 DEB",
        "group": "iridium-33-debris",
        "lat": -2.0144544879495365,
        "lon": 48.57029312289464,
        "alt_km": 764.9318733481005,
        "timestamp": "2025-12-21T09:37:23.039873+00:00",
        "meta_object_name": "IRIDIUM 33 DEB",
        "meta_object_id": "1997-051GN",
        "meta_epoch": "2025-12-21T03:02:18.964896",
        "meta_mean_motion": 14.27475874,
        "meta_eccentricity": 0.0078047,
        "meta_inclination": 86.2771,
        "meta_ra_of_asc_node": 48.8187,
        "meta_arg_of_pericenter": 312.1215,
        "meta_mean_anomaly": 76.3389,
        "meta_ephemeris_type": 0,
        "meta_classification_type": "U",
        "meta_norad_cat_id": 34497,
        "meta_element_set_no": 999,
        "meta_rev_at_epoch": 87003,
        "meta_bstar": 0.00042942,
        "meta_mean_motion_dot": 1.107e-05,
        "meta_mean_motion_ddot": 0,
        "tle_line1": "1 34497U 97051GN  25355.12660839  .00001107  00000+0  42942-3 0  9996",
        "tle_line2": "2 34497  86.2771  48.8187 0078047 312.1215  76.3389 14.27475874870030"
      },
      "geometry": {
        "type": "Point",
        "coordinates": [
          48.57029312289464,
          -2.0144544879495365
        ]
      }
    },
    {
      "type": "Feature",
      "properties": {
        "norad_id": 34508,
        "name": "IRIDIUM 33 DEB",
        "group": "iridium-33-debris",
        "lat": 42.13346506744216,
        "lon": -84.3195214029324,
        "alt_km": 712.9735999764816,
        "timestamp": "2025-12-21T09:37:23.039883+00:00",
        "meta_object_name": "IRIDIUM 33 DEB",
        "meta_object_id": "1997-051GZ",
        "meta_epoch": "2025-12-21T00:38:21.314976",
        "meta_mean_motion": 14.38484044,
        "meta_eccentricity": 0.006661,
        "meta_inclination": 86.371,
        "meta_ra_of_asc_node": 99.1304,
        "meta_arg_of_pericenter": 146.3518,
        "meta_mean_anomaly": 214.1938,
        "meta_ephemeris_type": 0,
        "meta_classification_type": "U",
        "meta_norad_cat_id": 34508,
        "meta_element_set_no": 999,
        "meta_rev_at_epoch": 87428,
        "meta_bstar": 0.00080829,
        "meta_mean_motion_dot": 2.552e-05,
        "meta_mean_motion_ddot": 0,
        "tle_line1": "1 34508U 97051GZ  25355.02663559  .00002552  00000+0  80829-3 0  9991",
        "tle_line2": "2 34508  86.3710  99.1304 0066610 146.3518 214.1938 14.38484044874287"
      },
      "geometry": {
        "type": "Point",
        "coordinates": [
          -84.3195214029324,
          42.13346506744216
        ]
      }
    },
    {
      "type": "Feature",
      "properties": {
        "norad_id": 34521,
        "name": "IRIDIUM 33 DEB",
        "group": "iridium-33-debris",
        "lat": 11.945436359970465,
        "lon": 27.5023471658082,
        "alt_km": 685.2820375650481,
        "timestamp": "2025-12-21T09:37:23.039894+00:00",
        "meta_object_name": "IRIDIUM 33 DEB",
        "meta_object_id": "1997-051HN",
        "meta_epoch": "2025-12-20T20:26:24.360576",
        "meta_mean_motion": 14.63427269,
        "meta_eccentricity": 0.0002559,
        "meta_inclination": 86.3787,
        "meta_ra_of_asc_node": 26.9765,
        "meta_arg_of_pericenter": 179.8016,
        "meta_mean_anomaly": 180.3197,
        "meta_ephemeris_type": 0,
        "meta_classification_type": "U",
        "meta_norad_cat_id": 34521,
        "meta_element_set_no": 999,
        "meta_rev_at_epoch": 88591,
        "meta_bstar": 0.00054052,
        "meta_mean_motion_dot": 2.817e-05,
        "meta_mean_motion_ddot": 0,
        "tle_line1": "1 34521U 97051HN  25354.85167084  .00002817  00000+0  54052-3 0  9991",
        "tle_line2": "2 34521  86.3787  26.9765 0002559 179.8016 180.3197 14.63427269885918"
      },
      "geometry": {
        "type": "Point",
        "coordinates": [
          27.5023471658082,
          11.945436359970465
        ]
      }
    },
    {
      "type": "Feature",
      "properties": {
        "norad_id": 34525,
        "name": "IRIDIUM 33 DEB",
        "group": "iridium-33-debris",
        "lat": -85.12664067860264,
        "lon": -4.938394398393395,
        "alt_km": 760.6783708432331,
        "timestamp": "2025-12-21T09:37:23.039904+00:00",
        "meta_object_name": "IRIDIUM 33 DEB",
        "meta_object_id": "1997-051HS",
        "meta_epoch": "2025-12-21T03:29:36.485088",
        "meta_mean_motion": 14.42923507,
        "meta_eccentricity": 0.0006444,
        "meta_inclination": 86.372,
        "meta_ra_of_asc_node": 43.2557,
        "meta_arg_of_pericenter": 76.0018,
        "meta_mean_anomaly": 311.4456,
        "meta_ephemeris_type": 0,
        "meta_classification_type": "U",
        "meta_norad_cat_id": 34525,
        "meta_element_set_no": 999,
        "meta_rev_at_epoch": 88209,
        "meta_bstar": 0.00023925,
        "meta_mean_motion_dot": 8.19e-06,
        "meta_mean_motion_ddot": 0,
        "tle_line1": "1 34525U 97051HS  25355.14556117  .00000819  00000+0  23925-3 0  9992",
        "tle_line2": "2 34525  86.3720  43.2557 0006444  76.0018 311.4456 14.42923507882091"
      },
      "geometry": {
        "type": "Point",
        "coordinates": [
          -4.938394398393395,
          -85.12664067860264
        ]
      }
    },
    {
      "type": "Feature",
      "properties": {
        "norad_id": 34529,
        "name": "IRIDIUM 33 DEB",
        "group": "iridium-33-debris",
        "lat": 82.52674395971049,
        "lon": -177.2819762574923,
        "alt_km": 746.676465707993,
        "timestamp": "2025-12-21T09:37:23.039914+00:00",
        "meta_object_name": "IRIDIUM 33 DEB",
        "meta_object_id": "1997-051HW",
        "meta_epoch": "2025-12-21T02:30:30.769056",
        "meta_mean_motion": 14.40621874,
        "meta_eccentricity": 0.0005784,
        "meta_inclination": 86.3633,
        "meta_ra_of_asc_node": 31.8458,
        "meta_arg_of_pericenter": 152.3196,
        "meta_mean_anomaly": 207.8312,
        "meta_ephemeris_type": 0,
        "meta_classification_type": "U",
        "meta_norad_cat_id": 34529,
        "meta_element_set_no": 999,
        "meta_rev_at_epoch": 88262,
        "meta_bstar": 8.4651e-05,
        "meta_mean_motion_dot": 2.9e-06,
        "meta_mean_motion_ddot": 0,
        "tle_line1": "1 34529U 97051HW  25355.10452279  .00000290  00000+0  84651-4 0  9993",
        "tle_line2": "2 34529  86.3633  31.8458 0005784 152.3196 207.8312 14.40621874882620"
      },
      "geometry": {
        "type": "Point",
        "coordinates": [
          -177.2819762574923,
          82.52674395971049
        ]
      }
    },
    {
      "type": "Feature",
      "properties": {
        "norad_id": 34538,
        "name": "IRIDIUM 33 DEB",
        "group": "iridium-33-debris",
        "lat": -2.157815819848902,
        "lon": 1.6212085317941276,
        "alt_km": 741.3708674718619,
        "timestamp": "2025-12-21T09:37:23.039938+00:00",
        "meta_object_name": "IRIDIUM 33 DEB",
        "meta_object_id": "1997-051JF",
        "meta_epoch": "2025-12-21T01:35:09.172896",
        "meta_mean_motion": 14.4269214,
        "meta_eccentricity": 0.0032129,
        "meta_inclination": 86.2756,
        "meta_ra_of_asc_node": 1.9085,
        "meta_arg_of_pericenter": 299.2748,
        "meta_mean_anomaly": 120.1935,
        "meta_ephemeris_type": 0,
        "meta_classification_type": "U",
        "meta_norad_cat_id": 34538,
        "meta_element_set_no": 999,
        "meta_rev_at_epoch": 87876,
        "meta_bstar": 0.00062386,
        "meta_mean_motion_dot": 2.106e-05,
        "meta_mean_motion_ddot": 0,
        "tle_line1": "1 34538U 97051JF  25355.06607839  .00002106  00000+0  62386-3 0  9990",
        "tle_line2": "2 34538  86.2756   1.9085 0032129 299.2748 120.1935 14.42692140878760"
      },
      "geometry": {
        "type": "Point",
        "coordinates": [
          1.6212085317941276,
          -2.157815819848902
        ]
      }
    }
  ]
}